NORAD_CAT_ID,OBJECT_NAME,OBJECT_TYPE,EPOCH,MEAN_MOTION,ECCENTRICITY,INCLINATION,RA_OF_ASC_NODE,ARG_OF_PERICENTER,MEAN_ANOMALY,BSTAR,MEAN_MOTION_DOT,MEAN_MOTION_DDOT,TLE_LINE0,TLE_LINE1,TLE_LINE2,SEMIMAJOR_AXIS,PERIOD,APOGEE,PERIGEE,DECAYED
53289.0,STARLINK-4176,PAYLOAD,2022-07-28 20:00:01,15.90062673,0.0041012,53.2175,22.4129,54.9438,341.4832,-0.0039781,-0.0131872999999999,0.00049655,0 STARLINK-4176,1 53289U 22086AZ  22209.83334491 -.01318730  49655-3 -39781-2 0  9992,2 53289  53.2175  22.4129 0041012  54.9438 341.4832 15.90062673  1301,6680.244000000002,90.562,329.506,274.712,0.0
53289.0,STARLINK-4176,PAYLOAD,2022-07-29 06:00:00,15.89000133,0.0036014,53.2177,20.2988,55.1441,206.9501,-0.0045286,-0.01395017,0.00054471,0 STARLINK-4176,1 53289U 22086AZ  22210.25001157 -.01395017  54471-3 -45286-2 0  9992,2 53289  53.2177  20.2988 0036014  55.1441 206.9501 15.89000133  1360,6683.222,90.623,329.156,281.018,0.0
53289.0,STARLINK-4176,PAYLOAD,2022-07-29 14:00:01,15.88096067,0.0032588,53.2177,18.6118,54.6783,314.7787,-0.004608,-0.01341972,0.00050329,0 STARLINK-4176,1 53289U 22086AZ  22210.58334491 -.01341972  50329-3 -46080-2 0  9990,2 53289  53.2177  18.6118 0032588  54.6783 314.7787 15.88096067  1411,6685.7580000000025,90.675,329.411,285.836,0.0
53289.0,STARLINK-4176,PAYLOAD,2022-07-29 22:00:00,15.87200978,0.0029931,53.2173,16.9284,56.2454,59.5145,-0.0047313999999999,-0.01308082,0.00047643,0 STARLINK-4176,1 53289U 22086AZ  22210.91667824 -.01308082  47643-3 -47314-2 0  9997,2 53289  53.2173  16.9284 0029931  56.2454  59.5145 15.87200978  1478,6688.271,90.726,330.155,290.118,0.0
53289.0,STARLINK-4176,PAYLOAD,2022-07-30 06:00:00,15.86357453,0.0026588,53.2175,15.2433,56.1665,164.8247,-0.005256,-0.0138146,0.00052226,0 STARLINK-4176,1 53289U 22086AZ  22211.25001157 -.01381460  52226-3 -52560-2 0  9999,2 53289  53.2175  15.2433 0026588  56.1665 164.8247 15.86357453  1525,6690.642,90.774,330.296,294.718,0.0
53289.0,STARLINK-4176,PAYLOAD,2022-07-30 14:00:01,15.85475845,0.0022995,53.2177,13.563,55.2754,269.9026,-0.0055071999999999,-0.0137602999999999,0.00051443,0 STARLINK-4176,1 53289U 22086AZ  22211.58334491 -.01376030  51443-3 -55072-2 0  9993,2 53289  53.2177  13.5630 0022995  55.2754 269.9026 15.85475845  1307,6693.121999999999,90.824,330.3780000000001,299.596,0.0
53289.0,STARLINK-4176,PAYLOAD,2022-07-30 20:00:01,15.84820881,0.0020674,53.2177,12.3053,56.978,255.6442,-0.0057439,-0.01219751,0.0,0 STARLINK-4176,1 53289U 22086AZ  22211.83334491 -.01219751  00000-0 -57439-2 0  9996,2 53289  53.2177  12.3053 0020674  56.9780 255.6442 15.84820881  1613,6694.965999999999,90.862,330.672,302.99,0.0
53289.0,STARLINK-4176,PAYLOAD,2022-07-30 22:00:00,15.84566898,0.0019864,53.2174,11.8858,56.0461,12.2713,-0.0055156999999999,-0.01162459,0.0,0 STARLINK-4176,1 53289U 22086AZ  22211.91667824 -.01162459  00000-0 -55157-2 0  9991,2 53289  53.2174  11.8858 0019864  56.0461  12.2713 15.84566898  1302,6695.682,90.877,330.847,304.246,0.0
53289.0,STARLINK-4176,PAYLOAD,2022-07-31 06:00:02,15.83704927,0.0017257,53.2174,10.2072,56.3562,114.0966,-0.0059273999999999,-0.01188173,0.0,0 STARLINK-4176,1 53289U 22086AZ  22212.25002315 -.01188173  00000-0 -59274-2 0  9992,2 53289  53.2174  10.2072 0017257  56.3562 114.0966 15.83704927  1680,6698.111,90.926,331.535,308.4170000000001,0.0
53289.0,STARLINK-4176,PAYLOAD,2022-07-31 14:00:01,15.82848285,0.0013488,53.2174,8.5339,52.389,219.0076,-0.0064199,-0.01245923,0.0,0 STARLINK-4176,1 53289U 22086AZ  22212.58334491 -.01245923  00000-0 -64199-2 0  9990,2 53289  53.2174   8.5339 0013488  52.3890 219.0076 15.82848285  1300,6700.526999999999,90.975,331.43,313.355,0.0
53289.0,STARLINK-4176,PAYLOAD,2022-07-31 20:00:01,15.82188072,0.0011795999999999,53.2175,7.2810000000000015,54.5019,201.9645,-0.0066201,-0.01242506,0.0,0 STARLINK-4176,1 53289U 22086AZ  22212.83334491 -.01242506  00000-0 -66201-2 0  9998,2 53289  53.2175   7.2810 0011796  54.5019 201.9645 15.82188072  1772,6702.391,91.013,332.162,316.35,0.0
53289.0,STARLINK-4176,PAYLOAD,2022-07-31 22:00:00,15.8194699,0.0010857,53.2171,6.8631,52.2864,319.0788,-0.0064831,-0.01205937,0.0,0 STARLINK-4176,1 53289U 22086AZ  22212.91667824 -.01205937  00000-0 -64831-2 0  9990,2 53289  53.2171   6.8631 0010857  52.2864 319.0788 15.81946990  1302,6703.071999999999,91.027,332.215,317.66,0.0
53289.0,STARLINK-4176,PAYLOAD,2022-08-01 14:00:01,15.80200609,0.0005463999999999,53.2178,3.5242,35.7569,172.3603,-0.0071709,-0.01220649,0.0,0 STARLINK-4176,1 53289U 22086AZ  22213.58334491 -.01220649  00000-0 -71709-2 0  9994,2 53289  53.2178   3.5242 0005464  35.7569 172.3603 15.80200609  1302,6708.01,91.128,333.54,326.21,0.0
53289.0,STARLINK-4176,PAYLOAD,2022-08-01 22:00:00,15.79321451,0.0003396999999999,53.2172,1.8596,14.8226,290.0874,-0.0074608999999999,-0.0121803,0.0,0 STARLINK-4176,1 53289U 22086AZ  22213.91667824 -.01218030  00000-0 -74609-2 0  9993,2 53289  53.2172   1.8596 0003397  14.8226 290.0874 15.79321451  1305,6710.499,91.178,334.644,330.084,0.0
53289.0,STARLINK-4176,PAYLOAD,2022-08-02 06:00:02,15.78434418,0.0003308,53.2173,0.1939,4.663,36.0551,-0.0076831999999999,-0.01205924,0.0,0 STARLINK-4176,1 53289U 22086AZ  22214.25002315 -.01205924  00000-0 -76832-2 0  9997,2 53289  53.2173   0.1939 0003308   4.6630  36.0551 15.78434418  2002,6713.013000000001,91.23,337.099,332.657,0.0
53289.0,STARLINK-4176,PAYLOAD,2022-08-02 14:00:01,15.77556181,0.000341,53.2173,358.5339,6.8395,128.4929,-0.007993,-0.01205696,0.0,0 STARLINK-4176,1 53289U 22086AZ  22214.58334491 -.01205696  00000-0 -79930-2 0  9994,2 53289  53.2173 358.5339 0003410   6.8395 128.4929 15.77556181  2053,6715.504,91.28,339.659,335.079,0.0
53289.0,STARLINK-4176,PAYLOAD,2022-08-03 06:00:00,15.75796641,0.000336,53.2174,355.2166,354.7217,326.8067,-0.0086203,-0.01202257,0.0,0 STARLINK-4176,1 53289U 22086AZ  22215.25001157 -.01202257  00000-0 -86203-2 0  9990,2 53289  53.2174 355.2166 0003360 354.7217 326.8067 15.75796641  2151,6720.502,91.382,344.625,340.1090000000001,0.0
53289.0,STARLINK-4176,PAYLOAD,2022-08-03 14:00:01,15.74931203,0.0002532,53.2177,353.5632,272.2097,140.826,-0.0091304,-0.01222395,0.0,0 STARLINK-4176,1 53289U 22086AZ  22215.58334491 -.01222395  00000-0 -91304-2 0  9999,2 53289  53.2177 353.5632 0002532 272.2097 140.8260 15.74931203  2213,6722.964,91.433,346.531,343.1269999999999,0.0
53289.0,STARLINK-4176,PAYLOAD,2022-08-03 22:00:01,15.73906509,4.8e-06,53.2172,351.911,81.6152,61.9665,-0.0058476,-0.00772735,0.0,0 STARLINK-4176,1 53289U 22086AZ  22215.91668981 -.00772735  00000-0 -58476-2 0  9990,2 53289  53.2172 351.9110 0000048  81.6152  61.9665 15.73906509  2262,6725.882,91.492,347.779,347.714,0.0
53289.0,STARLINK-4176,PAYLOAD,2022-08-04 06:00:00,15.73218888,8.77e-05,53.2172,350.2585,48.93,184.0425,-0.00017884,-0.00025661,0.0,0 STARLINK-4176,1 53289U 22086AZ  22216.25001157 -.00025661  00000-0 -17884-3 0  9992,2 53289  53.2172 350.2585 0000877  48.9300 184.0425 15.73218888  2314,6727.840999999999,91.532,350.296,349.116,0.0
53289.0,STARLINK-4176,PAYLOAD,2022-08-04 14:00:01,15.73203798,9.49e-05,53.2173,348.6105,40.8394,281.0726,8.180399999999999e-06,5.29e-06,0.0,0 STARLINK-4176,1 53289U 22086AZ  22216.58334491  .00000529  00000-0  81804-5 0  9997,2 53289  53.2173 348.6105 0000949  40.8394 281.0726 15.73203798  1302,6727.884,91.533,350.38800000000015,349.111,0.0
53289.0,STARLINK-4176,PAYLOAD,2022-08-04 20:00:01,15.73213496,8.540000000000003e-05,53.2197,347.3775,38.1983,260.2564,0.00056697,0.00079754,0.0,0 STARLINK-4176,1 53289U 22086AZ  22216.83334491  .00079754  00000-0  56697-3 0  9991,2 53289  53.2197 347.3775 0000854  38.1983 260.2564 15.73213496  2403,6727.857,91.532,350.296,349.147,0.0
53289.0,STARLINK-4176,PAYLOAD,2022-08-04 22:00:00,15.73245306,8.540000000000003e-05,53.2195,346.9646,38.1025,12.5863,0.00022478,0.00031104,0.0,0 STARLINK-4176,1 53289U 22086AZ  22216.91667824  .00031104  00000-0  22478-3 0  9996,2 53289  53.2195 346.9646 0000854  38.1025  12.5863 15.73245306  1303,6727.766,91.531,350.206,349.056,0.0
53289.0,STARLINK-4176,PAYLOAD,2022-08-05 04:00:00,15.73237132,7.42e-05,53.2199,345.7259,51.4252,336.01,0.00041981,0.00058804,0.0,0 STARLINK-4176,1 53289U 22086AZ  22217.16667824  .00058804  00000-0  41981-3 0  9990,2 53289  53.2199 345.7259 0000742  51.4252 336.0100 15.73237132  2464,6727.7890000000025,91.531,350.154,349.155,0.0
53289.0,STARLINK-4176,PAYLOAD,2022-08-05 12:00:00,15.73327159,0.000106,53.2198,344.0771,54.6444,61.78,-0.0012361,-0.00171533,0.0,0 STARLINK-4176,1 53289U 22086AZ  22217.50001157 -.00171533  00000-0 -12361-2 0  9995,2 53289  53.2198 344.0771 0001060  54.6444  61.7800 15.73327159  2510,6727.533,91.526,350.111,348.685,0.0
53289.0,STARLINK-4176,PAYLOAD,2022-08-05 14:00:01,15.73290544,0.0001176,53.2196,343.6652,53.2949,175.4624,-0.0010904999999999,-0.00151522,0.0,0 STARLINK-4176,1 53289U 22086AZ  22217.58335648 -.00151522  00000-0 -10905-2 0  9996,2 53289  53.2196 343.6652 0001176  53.2949 175.4624 15.73290544  1304,6727.637,91.528,350.293,348.711,0.0
53289.0,STARLINK-4176,PAYLOAD,2022-08-05 22:00:00,15.73197906,0.0001339,53.219,342.0158,53.3092,264.3769,0.00014194,0.00019344,0.0,0 STARLINK-4176,1 53289U 22086AZ  22217.91667824  .00019344  00000-0  14194-3 0  9995,2 53289  53.2190 342.0158 0001339  53.3092 264.3769 15.73197906  1309,6727.901,91.533,350.667,348.865,0.0
53289.0,STARLINK-4176,PAYLOAD,2022-08-06 14:00:01,15.7322829,0.0001179,53.2191,338.7168,51.1933,84.3692,-0.00052539,-0.00073798,0.0,0 STARLINK-4176,1 53289U 22086AZ  22218.58334491 -.00073798  00000-0 -52539-3 0  9990,2 53289  53.2191 338.7168 0001179  51.1933  84.3692 15.73228290  1301,6727.815,91.532,350.473,348.886,0.0
53289.0,STARLINK-4176,PAYLOAD,2022-08-06 22:00:00,15.73212879,0.0001177999999999,53.2193,337.0674,42.799,181.7098,5.0027e-05,6.409999999999999e-05,0.0,0 STARLINK-4176,1 53289U 22086AZ  22218.91667824  .00006410  00000-0  50027-4 0  9992,2 53289  53.2193 337.0674 0001178  42.7990 181.7098 15.73212879  2731,6727.858,91.532,350.516,348.931,0.0
